ALOS-4 (DAICHI-4)       
1 60182U 24123A   24296.21166147  .00004083  00000+0  55337-3 0  9990
2 60182  97.9215  31.0402 0001364  96.8716 263.2651 14.79466496 16720
